{"type":"FeatureCollection","features":[{"type":"Feature","properties":{"SYN_ID":"SYN-0001","PLOT_NO":"1","VILLAGE":"Synthetic Test Village (sample)","VILL_CODE":"SYN000","TEHSIL":"Dadri","AREA_HA":0.1773,"CLASS":"Abadi (sample)","UPDATED":"2026-10-01"},"geometry":{"type":"Polygon","coordinates":[[[77.5205,28.4605],[77.5208688,28.4605],[77.5208537,28.4608255],[77.5205,28.4608704],[77.5205,28.4605]]]}},{"type":"Feature","properties":{"SYN_ID":"SYN-0002","PLOT_NO":"2","VILLAGE":"Synthetic Test Village (sample)","VILL_CODE":"SYN000","TEHSIL":"Dadri","AREA_HA":0.2097,"CLASS":"Banjar (sample)","UPDATED":"2026-10-01"},"geometry":{"type":"Polygon","coordinates":[[[77.5208688,28.4605],[77.5212732,28.4605],[77.5213791,28.4609184],[77.5208537,28.4608255],[77.5208688,28.4605]]]}},{"type":"Feature","properties":{"SYN_ID":"SYN-0003","PLOT_NO":"3","VILLAGE":"Synthetic Test Village (sample)","VILL_CODE":"SYN000","TEHSIL":"Dadri","AREA_HA":0.2024,"CLASS":"Agricultural (sample)","UPDATED":"2026-10-01"},"geometry":{"type":"Polygon","coordinates":[[[77.5212732,28.4605],[77.5217823,28.4605],[77.5217897,28.4609046],[77.5213791,28.4609184],[77.5212732,28.4605]]]}},{"type":"Feature","properties":{"SYN_ID":"SYN-0004","PLOT_NO":"4","VILLAGE":"Synthetic Test Village (sample)","VILL_CODE":"SYN000","TEHSIL":"Dadri","AREA_HA":0.2035,"CLASS":"Abadi (sample)","UPDATED":"2026-10-01"},"geometry":{"type":"Polygon","coordinates":[[[77.5217823,28.4605],[77.5221419,28.4605],[77.5221543,28.4608744],[77.5217897,28.4609046],[77.5217823,28.4605]]]}},{"type":"Feature","properties":{"SYN_ID":"SYN-0005","PLOT_NO":"5","VILLAGE":"Synthetic Test Village (sample)","VILL_CODE":"SYN000","TEHSIL":"Dadri","AREA_HA":0.2067,"CLASS":"Banjar (sample)","UPDATED":"2026-10-01"},"geometry":{"type":"Polygon","coordinates":[[[77.5221419,28.4605],[77.5225885,28.4605],[77.5225371,28.4608003],[77.5221543,28.4608744],[77.5221419,28.4605]]]}},{"type":"Feature","properties":{"SYN_ID":"SYN-0006","PLOT_NO":"6","VILLAGE":"Synthetic Test Village (sample)","VILL_CODE":"SYN000","TEHSIL":"Dadri","AREA_HA":0.125,"CLASS":"Agricultural (sample)","UPDATED":"2026-10-01"},"geometry":{"type":"Polygon","coordinates":[[[77.5225885,28.4605],[77.5229716,28.4605],[77.5230468,28.4608638],[77.5225371,28.4608003],[77.5225885,28.4605]]]}},{"type":"Feature","properties":{"SYN_ID":"SYN-0007","PLOT_NO":"7/1","VILLAGE":"Synthetic Test Village (sample)","VILL_CODE":"SYN000","TEHSIL":"Dadri","AREA_HA":0.1594,"CLASS":"Abadi (sample)","UPDATED":"2026-10-01"},"geometry":{"type":"Polygon","coordinates":[[[77.5229716,28.4605],[77.5235066,28.4605],[77.5234525,28.460872],[77.5230468,28.4608638],[77.5229716,28.4605]]]}},{"type":"Feature","properties":{"SYN_ID":"SYN-0008","PLOT_NO":"8","VILLAGE":"Synthetic Test Village (sample)","VILL_CODE":"SYN000","TEHSIL":"Dadri","AREA_HA":0.16,"CLASS":"Banjar (sample)","UPDATED":"2026-10-01"},"geometry":{"type":"Polygon","coordinates":[[[77.5235066,28.4605],[77.5238369,28.4605],[77.5238906,28.460861],[77.5234525,28.460872],[77.5235066,28.4605]]]}},{"type":"Feature","properties":{"SYN_ID":"SYN-0009","PLOT_NO":"9","VILLAGE":"Synthetic Test Village (sample)","VILL_CODE":"SYN000","TEHSIL":"Dadri","AREA_HA":0.1237,"CLASS":"Agricultural (sample)","UPDATED":"2026-10-01"},"geometry":{"type":"Polygon","coordinates":[[[77.5238369,28.4605],[77.5242406,28.4605],[77.5242388,28.4608088],[77.5238906,28.460861],[77.5238369,28.4605]]]}},{"type":"Feature","properties":{"SYN_ID":"SYN-0010","PLOT_NO":"10","VILLAGE":"Synthetic Test Village (sample)","VILL_CODE":"SYN000","TEHSIL":"Dadri","AREA_HA":0.1673,"CLASS":"Abadi (sample)","UPDATED":"2026-10-01"},"geometry":{"type":"Polygon","coordinates":[[[77.5242406,28.4605],[77.524662,28.4605],[77.5247388,28.4609154],[77.5242388,28.4608088],[77.5242406,28.4605]]]}},{"type":"Feature","properties":{"SYN_ID":"SYN-0011","PLOT_NO":"11","VILLAGE":"Synthetic Test Village (sample)","VILL_CODE":"SYN000","TEHSIL":"Dadri","AREA_HA":0.1878,"CLASS":"Banjar (sample)","UPDATED":"2026-10-01"},"geometry":{"type":"Polygon","coordinates":[[[77.524662,28.4605],[77.5250479,28.4605],[77.525175,28.460806],[77.5247388,28.4609154],[77.524662,28.4605]]]}},{"type":"Feature","properties":{"SYN_ID":"SYN-0012","PLOT_NO":"12","VILLAGE":"Synthetic Test Village (sample)","VILL_CODE":"SYN000","TEHSIL":"Dadri","AREA_HA":0.1814,"CLASS":"Agricultural (sample)","UPDATED":"2026-10-01"},"geometry":{"type":"Polygon","coordinates":[[[77.5250479,28.4605],[77.52554,28.4605],[77.52554,28.4608968],[77.525175,28.460806],[77.5250479,28.4605]]]}},{"type":"Feature","properties":{"SYN_ID":"SYN-0013","PLOT_NO":"13","VILLAGE":"Synthetic Test Village (sample)","VILL_CODE":"SYN000","TEHSIL":"Dadri","AREA_HA":0.2043,"CLASS":"Abadi (sample)","UPDATED":"2026-10-01"},"geometry":{"type":"Polygon","coordinates":[[[77.5205,28.4608704],[77.5208537,28.4608255],[77.5208887,28.4612826],[77.5205,28.4612225],[77.5205,28.4608704]]]}},{"type":"Feature","properties":{"SYN_ID":"SYN-0014","PLOT_NO":"14/1","VILLAGE":"Synthetic Test Village (sample)","VILL_CODE":"SYN000","TEHSIL":"Dadri","AREA_HA":0.1875,"CLASS":"Banjar (sample)","UPDATED":"2026-10-01"},"geometry":{"type":"Polygon","coordinates":[[[77.5208537,28.4608255],[77.5213791,28.4609184],[77.5213848,28.4611715],[77.5208887,28.4612826],[77.5208537,28.4608255]]]}},{"type":"Feature","properties":{"SYN_ID":"SYN-0015","PLOT_NO":"15","VILLAGE":"Synthetic Test Village (sample)","VILL_CODE":"SYN000","TEHSIL":"Dadri","AREA_HA":0.1864,"CLASS":"Agricultural (sample)","UPDATED":"2026-10-01"},"geometry":{"type":"Polygon","coordinates":[[[77.5213791,28.4609184],[77.5217897,28.4609046],[77.521806,28.461186],[77.5213848,28.4611715],[77.5213791,28.4609184]]]}},{"type":"Feature","properties":{"SYN_ID":"SYN-0016","PLOT_NO":"16","VILLAGE":"Synthetic Test Village (sample)","VILL_CODE":"SYN000","TEHSIL":"Dadri","AREA_HA":0.1224,"CLASS":"Abadi (sample)","UPDATED":"2026-10-01"},"geometry":{"type":"Polygon","coordinates":[[[77.5217897,28.4609046],[77.5221543,28.4608744],[77.5222143,28.4612307],[77.521806,28.461186],[77.5217897,28.4609046]]]}},{"type":"Feature","properties":{"SYN_ID":"SYN-0017","PLOT_NO":"17","VILLAGE":"Synthetic Test Village (sample)","VILL_CODE":"SYN000","TEHSIL":"Dadri","AREA_HA":0.202,"CLASS":"Banjar (sample)","UPDATED":"2026-10-01"},"geometry":{"type":"Polygon","coordinates":[[[77.5221543,28.4608744],[77.5225371,28.4608003],[77.5225481,28.4612018],[77.5222143,28.4612307],[77.5221543,28.4608744]]]}},{"type":"Feature","properties":{"SYN_ID":"SYN-0018","PLOT_NO":"18","VILLAGE":"Synthetic Test Village (sample)","VILL_CODE":"SYN000","TEHSIL":"Dadri","AREA_HA":0.1765,"CLASS":"Agricultural (sample)","UPDATED":"2026-10-01"},"geometry":{"type":"Polygon","coordinates":[[[77.5225371,28.4608003],[77.5230468,28.4608638],[77.5230588,28.4612362],[77.5225481,28.4612018],[77.5225371,28.4608003]]]}},{"type":"Feature","properties":{"SYN_ID":"SYN-0019","PLOT_NO":"19","VILLAGE":"Synthetic Test Village (sample)","VILL_CODE":"SYN000","TEHSIL":"Dadri","AREA_HA":0.1507,"CLASS":"Abadi (sample)","UPDATED":"2026-10-01"},"geometry":{"type":"Polygon","coordinates":[[[77.5230468,28.4608638],[77.5234525,28.460872],[77.5233848,28.4611691],[77.5230588,28.4612362],[77.5230468,28.4608638]]]}},{"type":"Feature","properties":{"SYN_ID":"SYN-0020","PLOT_NO":"20","VILLAGE":"Synthetic Test Village (sample)","VILL_CODE":"SYN000","TEHSIL":"Dadri","AREA_HA":0.1363,"CLASS":"Banjar (sample)","UPDATED":"2026-10-01"},"geometry":{"type":"Polygon","coordinates":[[[77.5234525,28.460872],[77.5238906,28.460861],[77.5237965,28.4611684],[77.5233848,28.4611691],[77.5234525,28.460872]]]}},{"type":"Feature","properties":{"SYN_ID":"SYN-0021","PLOT_NO":"21/1","VILLAGE":"Synthetic Test Village (sample)","VILL_CODE":"SYN000","TEHSIL":"Dadri","AREA_HA":0.1368,"CLASS":"Agricultural (sample)","UPDATED":"2026-10-01"},"geometry":{"type":"Polygon","coordinates":[[[77.5238906,28.460861],[77.5242388,28.4608088],[77.5242553,28.4612818],[77.5237965,28.4611684],[77.5238906,28.460861]]]}},{"type":"Feature","properties":{"SYN_ID":"SYN-0022","PLOT_NO":"22","VILLAGE":"Synthetic Test Village (sample)","VILL_CODE":"SYN000","TEHSIL":"Dadri","AREA_HA":0.1218,"CLASS":"Abadi (sample)","UPDATED":"2026-10-01"},"geometry":{"type":"Polygon","coordinates":[[[77.5242388,28.4608088],[77.5247388,28.4609154],[77.5246515,28.461161],[77.5242553,28.4612818],[77.5242388,28.4608088]]]}},{"type":"Feature","properties":{"SYN_ID":"SYN-0023","PLOT_NO":"23","VILLAGE":"Synthetic Test Village (sample)","VILL_CODE":"SYN000","TEHSIL":"Dadri","AREA_HA":0.1386,"CLASS":"Banjar (sample)","UPDATED":"2026-10-01"},"geometry":{"type":"Polygon","coordinates":[[[77.5247388,28.4609154],[77.525175,28.460806],[77.5251497,28.4611814],[77.5246515,28.461161],[77.5247388,28.4609154]]]}},{"type":"Feature","properties":{"SYN_ID":"SYN-0024","PLOT_NO":"24","VILLAGE":"Synthetic Test Village (sample)","VILL_CODE":"SYN000","TEHSIL":"Dadri","AREA_HA":0.1906,"CLASS":"Agricultural (sample)","UPDATED":"2026-10-01"},"geometry":{"type":"Polygon","coordinates":[[[77.525175,28.460806],[77.52554,28.4608968],[77.52554,28.4612723],[77.5251497,28.4611814],[77.525175,28.460806]]]}},{"type":"Feature","properties":{"SYN_ID":"SYN-0025","PLOT_NO":"25","VILLAGE":"Synthetic Test Village (sample)","VILL_CODE":"SYN000","TEHSIL":"Dadri","AREA_HA":0.1276,"CLASS":"Abadi (sample)","UPDATED":"2026-10-01"},"geometry":{"type":"Polygon","coordinates":[[[77.5205,28.4612225],[77.5208887,28.4612826],[77.5209509,28.4616016],[77.5205,28.4616323],[77.5205,28.4612225]]]}},{"type":"Feature","properties":{"SYN_ID":"SYN-0026","PLOT_NO":"26","VILLAGE":"Synthetic Test Village (sample)","VILL_CODE":"SYN000","TEHSIL":"Dadri","AREA_HA":0.1363,"CLASS":"Banjar (sample)","UPDATED":"2026-10-01"},"geometry":{"type":"Polygon","coordinates":[[[77.5208887,28.4612826],[77.5213848,28.4611715],[77.521316,28.4615988],[77.5209509,28.4616016],[77.5208887,28.4612826]]]}},{"type":"Feature","properties":{"SYN_ID":"SYN-0027","PLOT_NO":"27","VILLAGE":"Synthetic Test Village (sample)","VILL_CODE":"SYN000","TEHSIL":"Dadri","AREA_HA":0.1887,"CLASS":"Agricultural (sample)","UPDATED":"2026-10-01"},"geometry":{"type":"Polygon","coordinates":[[[77.5213848,28.4611715],[77.521806,28.461186],[77.5218094,28.4615709],[77.521316,28.4615988],[77.5213848,28.4611715]]]}},{"type":"Feature","properties":{"SYN_ID":"SYN-0028","PLOT_NO":"28/1","VILLAGE":"Synthetic Test Village (sample)","VILL_CODE":"SYN000","TEHSIL":"Dadri","AREA_HA":0.133,"CLASS":"Abadi (sample)","UPDATED":"2026-10-01"},"geometry":{"type":"Polygon","coordinates":[[[77.521806,28.461186],[77.5222143,28.4612307],[77.5222251,28.4615936],[77.5218094,28.4615709],[77.521806,28.461186]]]}},{"type":"Feature","properties":{"SYN_ID":"SYN-0029","PLOT_NO":"29","VILLAGE":"Synthetic Test Village (sample)","VILL_CODE":"SYN000","TEHSIL":"Dadri","AREA_HA":0.1375,"CLASS":"Banjar (sample)","UPDATED":"2026-10-01"},"geometry":{"type":"Polygon","coordinates":[[[77.5222143,28.4612307],[77.5225481,28.4612018],[77.5226063,28.4616423],[77.5222251,28.4615936],[77.5222143,28.4612307]]]}},{"type":"Feature","properties":{"SYN_ID":"SYN-0030","PLOT_NO":"30","VILLAGE":"Synthetic Test Village (sample)","VILL_CODE":"SYN000","TEHSIL":"Dadri","AREA_HA":0.1204,"CLASS":"Agricultural (sample)","UPDATED":"2026-10-01"},"geometry":{"type":"Polygon","coordinates":[[[77.5225481,28.4612018],[77.5230588,28.4612362],[77.523018,28.4615696],[77.5226063,28.4616423],[77.5225481,28.4612018]]]}},{"type":"Feature","properties":{"SYN_ID":"SYN-0031","PLOT_NO":"31","VILLAGE":"Synthetic Test Village (sample)","VILL_CODE":"SYN000","TEHSIL":"Dadri","AREA_HA":0.1346,"CLASS":"Abadi (sample)","UPDATED":"2026-10-01"},"geometry":{"type":"Polygon","coordinates":[[[77.5230588,28.4612362],[77.5233848,28.4611691],[77.5234887,28.4616014],[77.523018,28.4615696],[77.5230588,28.4612362]]]}},{"type":"Feature","properties":{"SYN_ID":"SYN-0032","PLOT_NO":"32","VILLAGE":"Synthetic Test Village (sample)","VILL_CODE":"SYN000","TEHSIL":"Dadri","AREA_HA":0.2044,"CLASS":"Banjar (sample)","UPDATED":"2026-10-01"},"geometry":{"type":"Polygon","coordinates":[[[77.5233848,28.4611691],[77.5237965,28.4611684],[77.5238657,28.4615735],[77.5234887,28.4616014],[77.5233848,28.4611691]]]}},{"type":"Feature","properties":{"SYN_ID":"SYN-0033","PLOT_NO":"33","VILLAGE":"Synthetic Test Village (sample)","VILL_CODE":"SYN000","TEHSIL":"Dadri","AREA_HA":0.1947,"CLASS":"Agricultural (sample)","UPDATED":"2026-10-01"},"geometry":{"type":"Polygon","coordinates":[[[77.5237965,28.4611684],[77.5242553,28.4612818],[77.5242998,28.4615461],[77.5238657,28.4615735],[77.5237965,28.4611684]]]}},{"type":"Feature","properties":{"SYN_ID":"SYN-0034","PLOT_NO":"34","VILLAGE":"Synthetic Test Village (sample)","VILL_CODE":"SYN000","TEHSIL":"Dadri","AREA_HA":0.1549,"CLASS":"Abadi (sample)","UPDATED":"2026-10-01"},"geometry":{"type":"Polygon","coordinates":[[[77.5242553,28.4612818],[77.5246515,28.461161],[77.5246622,28.4615397],[77.5242998,28.4615461],[77.5242553,28.4612818]]]}},{"type":"Feature","properties":{"SYN_ID":"SYN-0035","PLOT_NO":"35/1","VILLAGE":"Synthetic Test Village (sample)","VILL_CODE":"SYN000","TEHSIL":"Dadri","AREA_HA":0.158,"CLASS":"Banjar (sample)","UPDATED":"2026-10-01"},"geometry":{"type":"Polygon","coordinates":[[[77.5246515,28.461161],[77.5251497,28.4611814],[77.525161,28.4615571],[77.5246622,28.4615397],[77.5246515,28.461161]]]}},{"type":"Feature","properties":{"SYN_ID":"SYN-0036","PLOT_NO":"36","VILLAGE":"Synthetic Test Village (sample)","VILL_CODE":"SYN000","TEHSIL":"Dadri","AREA_HA":0.1887,"CLASS":"Agricultural (sample)","UPDATED":"2026-10-01"},"geometry":{"type":"Polygon","coordinates":[[[77.5251497,28.4611814],[77.52554,28.4612723],[77.52554,28.4615664],[77.525161,28.4615571],[77.5251497,28.4611814]]]}},{"type":"Feature","properties":{"SYN_ID":"SYN-0037","PLOT_NO":"37","VILLAGE":"Synthetic Test Village (sample)","VILL_CODE":"SYN000","TEHSIL":"Dadri","AREA_HA":0.1581,"CLASS":"Abadi (sample)","UPDATED":"2026-10-01"},"geometry":{"type":"Polygon","coordinates":[[[77.5205,28.4616323],[77.5209509,28.4616016],[77.5208997,28.4619093],[77.5205,28.461965],[77.5205,28.4616323]]]}},{"type":"Feature","properties":{"SYN_ID":"SYN-0038","PLOT_NO":"38","VILLAGE":"Synthetic Test Village (sample)","VILL_CODE":"SYN000","TEHSIL":"Dadri","AREA_HA":0.1826,"CLASS":"Banjar (sample)","UPDATED":"2026-10-01"},"geometry":{"type":"Polygon","coordinates":[[[77.5209509,28.4616016],[77.521316,28.4615988],[77.5212747,28.4619109],[77.5208997,28.4619093],[77.5209509,28.4616016]]]}},{"type":"Feature","properties":{"SYN_ID":"SYN-0039","PLOT_NO":"39","VILLAGE":"Synthetic Test Village (sample)","VILL_CODE":"SYN000","TEHSIL":"Dadri","AREA_HA":0.2025,"CLASS":"Agricultural (sample)","UPDATED":"2026-10-01"},"geometry":{"type":"Polygon","coordinates":[[[77.521316,28.4615988],[77.5218094,28.4615709],[77.5218214,28.4618946],[77.5212747,28.4619109],[77.521316,28.4615988]]]}},{"type":"Feature","properties":{"SYN_ID":"SYN-0040","PLOT_NO":"40","VILLAGE":"Synthetic Test Village (sample)","VILL_CODE":"SYN000","TEHSIL":"Dadri","AREA_HA":0.1866,"CLASS":"Abadi (sample)","UPDATED":"2026-10-01"},"geometry":{"type":"Polygon","coordinates":[[[77.5218094,28.4615709],[77.5222251,28.4615936],[77.5221976,28.4618882],[77.5218214,28.4618946],[77.5218094,28.4615709]]]}},{"type":"Feature","properties":{"SYN_ID":"SYN-0041","PLOT_NO":"41","VILLAGE":"Synthetic Test Village (sample)","VILL_CODE":"SYN000","TEHSIL":"Dadri","AREA_HA":0.1609,"CLASS":"Banjar (sample)","UPDATED":"2026-10-01"},"geometry":{"type":"Polygon","coordinates":[[[77.5222251,28.4615936],[77.5226063,28.4616423],[77.5225888,28.4619248],[77.5221976,28.4618882],[77.5222251,28.4615936]]]}},{"type":"Feature","properties":{"SYN_ID":"SYN-0042","PLOT_NO":"42/1","VILLAGE":"Synthetic Test Village (sample)","VILL_CODE":"SYN000","TEHSIL":"Dadri","AREA_HA":0.1205,"CLASS":"Agricultural (sample)","UPDATED":"2026-10-01"},"geometry":{"type":"Polygon","coordinates":[[[77.5226063,28.4616423],[77.523018,28.4615696],[77.522981,28.4618784],[77.5225888,28.4619248],[77.5226063,28.4616423]]]}},{"type":"Feature","properties":{"SYN_ID":"SYN-0043","PLOT_NO":"43","VILLAGE":"Synthetic Test Village (sample)","VILL_CODE":"SYN000","TEHSIL":"Dadri","AREA_HA":0.1245,"CLASS":"Abadi (sample)","UPDATED":"2026-10-01"},"geometry":{"type":"Polygon","coordinates":[[[77.523018,28.4615696],[77.5234887,28.4616014],[77.5234349,28.4619753],[77.522981,28.4618784],[77.523018,28.4615696]]]}},{"type":"Feature","properties":{"SYN_ID":"SYN-0044","PLOT_NO":"44","VILLAGE":"Synthetic Test Village (sample)","VILL_CODE":"SYN000","TEHSIL":"Dadri","AREA_HA":0.1237,"CLASS":"Banjar (sample)","UPDATED":"2026-10-01"},"geometry":{"type":"Polygon","coordinates":[[[77.5234887,28.4616014],[77.5238657,28.4615735],[77.5239262,28.4618807],[77.5234349,28.4619753],[77.5234887,28.4616014]]]}},{"type":"Feature","properties":{"SYN_ID":"SYN-0045","PLOT_NO":"45","VILLAGE":"Synthetic Test Village (sample)","VILL_CODE":"SYN000","TEHSIL":"Dadri","AREA_HA":0.1554,"CLASS":"Agricultural (sample)","UPDATED":"2026-10-01"},"geometry":{"type":"Polygon","coordinates":[[[77.5238657,28.4615735],[77.5242998,28.4615461],[77.5243097,28.4619133],[77.5239262,28.4618807],[77.5238657,28.4615735]]]}},{"type":"Feature","properties":{"SYN_ID":"SYN-0046","PLOT_NO":"46","VILLAGE":"Synthetic Test Village (sample)","VILL_CODE":"SYN000","TEHSIL":"Dadri","AREA_HA":0.172,"CLASS":"Abadi (sample)","UPDATED":"2026-10-01"},"geometry":{"type":"Polygon","coordinates":[[[77.5242998,28.4615461],[77.5246622,28.4615397],[77.5246928,28.4619074],[77.5243097,28.4619133],[77.5242998,28.4615461]]]}},{"type":"Feature","properties":{"SYN_ID":"SYN-0047","PLOT_NO":"47","VILLAGE":"Synthetic Test Village (sample)","VILL_CODE":"SYN000","TEHSIL":"Dadri","AREA_HA":0.1378,"CLASS":"Banjar (sample)","UPDATED":"2026-10-01"},"geometry":{"type":"Polygon","coordinates":[[[77.5246622,28.4615397],[77.525161,28.4615571],[77.5251022,28.4619463],[77.5246928,28.4619074],[77.5246622,28.4615397]]]}},{"type":"Feature","properties":{"SYN_ID":"SYN-0048","PLOT_NO":"48","VILLAGE":"Synthetic Test Village (sample)","VILL_CODE":"SYN000","TEHSIL":"Dadri","AREA_HA":0.1946,"CLASS":"Agricultural (sample)","UPDATED":"2026-10-01"},"geometry":{"type":"Polygon","coordinates":[[[77.525161,28.4615571],[77.52554,28.4615664],[77.52554,28.4618838],[77.5251022,28.4619463],[77.525161,28.4615571]]]}},{"type":"Feature","properties":{"SYN_ID":"SYN-0049","PLOT_NO":"49/1","VILLAGE":"Synthetic Test Village (sample)","VILL_CODE":"SYN000","TEHSIL":"Dadri","AREA_HA":0.1889,"CLASS":"Abadi (sample)","UPDATED":"2026-10-01"},"geometry":{"type":"Polygon","coordinates":[[[77.5205,28.461965],[77.5208997,28.4619093],[77.5208619,28.4623503],[77.5205,28.4623319],[77.5205,28.461965]]]}},{"type":"Feature","properties":{"SYN_ID":"SYN-0050","PLOT_NO":"50","VILLAGE":"Synthetic Test Village (sample)","VILL_CODE":"SYN000","TEHSIL":"Dadri","AREA_HA":0.159,"CLASS":"Banjar (sample)","UPDATED":"2026-10-01"},"geometry":{"type":"Polygon","coordinates":[[[77.5208997,28.4619093],[77.5212747,28.4619109],[77.5213407,28.4623338],[77.5208619,28.4623503],[77.5208997,28.4619093]]]}},{"type":"Feature","properties":{"SYN_ID":"SYN-0051","PLOT_NO":"51","VILLAGE":"Synthetic Test Village (sample)","VILL_CODE":"SYN000","TEHSIL":"Dadri","AREA_HA":0.1294,"CLASS":"Agricultural (sample)","UPDATED":"2026-10-01"},"geometry":{"type":"Polygon","coordinates":[[[77.5212747,28.4619109],[77.5218214,28.4618946],[77.5218109,28.4622735],[77.5213407,28.4623338],[77.5212747,28.4619109]]]}},{"type":"Feature","properties":{"SYN_ID":"SYN-0052","PLOT_NO":"52","VILLAGE":"Synthetic Test Village (sample)","VILL_CODE":"SYN000","TEHSIL":"Dadri","AREA_HA":0.1478,"CLASS":"Abadi (sample)","UPDATED":"2026-10-01"},"geometry":{"type":"Polygon","coordinates":[[[77.5218214,28.4618946],[77.5221976,28.4618882],[77.5221461,28.4622471],[77.5218109,28.4622735],[77.5218214,28.4618946]]]}},{"type":"Feature","properties":{"SYN_ID":"SYN-0053","PLOT_NO":"53","VILLAGE":"Synthetic Test Village (sample)","VILL_CODE":"SYN000","TEHSIL":"Dadri","AREA_HA":0.162,"CLASS":"Banjar (sample)","UPDATED":"2026-10-01"},"geometry":{"type":"Polygon","coordinates":[[[77.5221976,28.4618882],[77.5225888,28.4619248],[77.5225787,28.4623163],[77.5221461,28.4622471],[77.5221976,28.4618882]]]}},{"type":"Feature","properties":{"SYN_ID":"SYN-0054","PLOT_NO":"54","VILLAGE":"Synthetic Test Village (sample)","VILL_CODE":"SYN000","TEHSIL":"Dadri","AREA_HA":0.1922,"CLASS":"Agricultural (sample)","UPDATED":"2026-10-01"},"geometry":{"type":"Polygon","coordinates":[[[77.5225888,28.4619248],[77.522981,28.4618784],[77.5229949,28.4623051],[77.5225787,28.4623163],[77.5225888,28.4619248]]]}},{"type":"Feature","properties":{"SYN_ID":"SYN-0055","PLOT_NO":"55","VILLAGE":"Synthetic Test Village (sample)","VILL_CODE":"SYN000","TEHSIL":"Dadri","AREA_HA":0.1363,"CLASS":"Abadi (sample)","UPDATED":"2026-10-01"},"geometry":{"type":"Polygon","coordinates":[[[77.522981,28.4618784],[77.5234349,28.4619753],[77.5234611,28.4623462],[77.5229949,28.4623051],[77.522981,28.4618784]]]}},{"type":"Feature","properties":{"SYN_ID":"SYN-0056","PLOT_NO":"56/1","VILLAGE":"Synthetic Test Village (sample)","VILL_CODE":"SYN000","TEHSIL":"Dadri","AREA_HA":0.1841,"CLASS":"Banjar (sample)","UPDATED":"2026-10-01"},"geometry":{"type":"Polygon","coordinates":[[[77.5234349,28.4619753],[77.5239262,28.4618807],[77.523926,28.4623549],[77.5234611,28.4623462],[77.5234349,28.4619753]]]}},{"type":"Feature","properties":{"SYN_ID":"SYN-0057","PLOT_NO":"57","VILLAGE":"Synthetic Test Village (sample)","VILL_CODE":"SYN000","TEHSIL":"Dadri","AREA_HA":0.2052,"CLASS":"Agricultural (sample)","UPDATED":"2026-10-01"},"geometry":{"type":"Polygon","coordinates":[[[77.5239262,28.4618807],[77.5243097,28.4619133],[77.5243105,28.4623485],[77.523926,28.4623549],[77.5239262,28.4618807]]]}},{"type":"Feature","properties":{"SYN_ID":"SYN-0058","PLOT_NO":"58","VILLAGE":"Synthetic Test Village (sample)","VILL_CODE":"SYN000","TEHSIL":"Dadri","AREA_HA":0.1641,"CLASS":"Abadi (sample)","UPDATED":"2026-10-01"},"geometry":{"type":"Polygon","coordinates":[[[77.5243097,28.4619133],[77.5246928,28.4619074],[77.5247396,28.46227],[77.5243105,28.4623485],[77.5243097,28.4619133]]]}},{"type":"Feature","properties":{"SYN_ID":"SYN-0059","PLOT_NO":"59","VILLAGE":"Synthetic Test Village (sample)","VILL_CODE":"SYN000","TEHSIL":"Dadri","AREA_HA":0.2079,"CLASS":"Banjar (sample)","UPDATED":"2026-10-01"},"geometry":{"type":"Polygon","coordinates":[[[77.5246928,28.4619074],[77.5251022,28.4619463],[77.5251092,28.4623243],[77.5247396,28.46227],[77.5246928,28.4619074]]]}},{"type":"Feature","properties":{"SYN_ID":"SYN-0060","PLOT_NO":"60","VILLAGE":"Synthetic Test Village (sample)","VILL_CODE":"SYN000","TEHSIL":"Dadri","AREA_HA":0.1325,"CLASS":"Agricultural (sample)","UPDATED":"2026-10-01"},"geometry":{"type":"Polygon","coordinates":[[[77.5251022,28.4619463],[77.52554,28.4618838],[77.52554,28.4622462],[77.5251092,28.4623243],[77.5251022,28.4619463]]]}},{"type":"Feature","properties":{"SYN_ID":"SYN-0061","PLOT_NO":"61","VILLAGE":"Synthetic Test Village (sample)","VILL_CODE":"SYN000","TEHSIL":"Dadri","AREA_HA":0.1899,"CLASS":"Abadi (sample)","UPDATED":"2026-10-01"},"geometry":{"type":"Polygon","coordinates":[[[77.5205,28.4623319],[77.5208619,28.4623503],[77.5209714,28.4627028],[77.5205,28.4626839],[77.5205,28.4623319]]]}},{"type":"Feature","properties":{"SYN_ID":"SYN-0062","PLOT_NO":"62","VILLAGE":"Synthetic Test Village (sample)","VILL_CODE":"SYN000","TEHSIL":"Dadri","AREA_HA":0.1303,"CLASS":"Banjar (sample)","UPDATED":"2026-10-01"},"geometry":{"type":"Polygon","coordinates":[[[77.5208619,28.4623503],[77.5213407,28.4623338],[77.5213064,28.4626621],[77.5209714,28.4627028],[77.5208619,28.4623503]]]}},{"type":"Feature","properties":{"SYN_ID":"SYN-0063","PLOT_NO":"63/1","VILLAGE":"Synthetic Test Village (sample)","VILL_CODE":"SYN000","TEHSIL":"Dadri","AREA_HA":0.2173,"CLASS":"Agricultural (sample)","UPDATED":"2026-10-01"},"geometry":{"type":"Polygon","coordinates":[[[77.5213407,28.4623338],[77.5218109,28.4622735],[77.5216891,28.4626586],[77.5213064,28.4626621],[77.5213407,28.4623338]]]}},{"type":"Feature","properties":{"SYN_ID":"SYN-0064","PLOT_NO":"64","VILLAGE":"Synthetic Test Village (sample)","VILL_CODE":"SYN000","TEHSIL":"Dadri","AREA_HA":0.1723,"CLASS":"Abadi (sample)","UPDATED":"2026-10-01"},"geometry":{"type":"Polygon","coordinates":[[[77.5218109,28.4622735],[77.5221461,28.4622471],[77.5222388,28.46272],[77.5216891,28.4626586],[77.5218109,28.4622735]]]}},{"type":"Feature","properties":{"SYN_ID":"SYN-0065","PLOT_NO":"65","VILLAGE":"Synthetic Test Village (sample)","VILL_CODE":"SYN000","TEHSIL":"Dadri","AREA_HA":0.1943,"CLASS":"Banjar (sample)","UPDATED":"2026-10-01"},"geometry":{"type":"Polygon","coordinates":[[[77.5221461,28.4622471],[77.5225787,28.4623163],[77.5225876,28.4625998],[77.5222388,28.46272],[77.5221461,28.4622471]]]}},{"type":"Feature","properties":{"SYN_ID":"SYN-0066","PLOT_NO":"66","VILLAGE":"Synthetic Test Village (sample)","VILL_CODE":"SYN000","TEHSIL":"Dadri","AREA_HA":0.1504,"CLASS":"Agricultural (sample)","UPDATED":"2026-10-01"},"geometry":{"type":"Polygon","coordinates":[[[77.5225787,28.4623163],[77.5229949,28.4623051],[77.522989,28.4627215],[77.5225876,28.4625998],[77.5225787,28.4623163]]]}},{"type":"Feature","properties":{"SYN_ID":"SYN-0067","PLOT_NO":"67","VILLAGE":"Synthetic Test Village (sample)","VILL_CODE":"SYN000","TEHSIL":"Dadri","AREA_HA":0.1781,"CLASS":"Abadi (sample)","UPDATED":"2026-10-01"},"geometry":{"type":"Polygon","coordinates":[[[77.5229949,28.4623051],[77.5234611,28.4623462],[77.523416,28.4626131],[77.522989,28.4627215],[77.5229949,28.4623051]]]}},{"type":"Feature","properties":{"SYN_ID":"SYN-0068","PLOT_NO":"68","VILLAGE":"Synthetic Test Village (sample)","VILL_CODE":"SYN000","TEHSIL":"Dadri","AREA_HA":0.1905,"CLASS":"Banjar (sample)","UPDATED":"2026-10-01"},"geometry":{"type":"Polygon","coordinates":[[[77.5234611,28.4623462],[77.523926,28.4623549],[77.5238761,28.4626753],[77.523416,28.4626131],[77.5234611,28.4623462]]]}},{"type":"Feature","properties":{"SYN_ID":"SYN-0069","PLOT_NO":"69","VILLAGE":"Synthetic Test Village (sample)","VILL_CODE":"SYN000","TEHSIL":"Dadri","AREA_HA":0.216,"CLASS":"Agricultural (sample)","UPDATED":"2026-10-01"},"geometry":{"type":"Polygon","coordinates":[[[77.523926,28.4623549],[77.5243105,28.4623485],[77.5242443,28.4626051],[77.5238761,28.4626753],[77.523926,28.4623549]]]}},{"type":"Feature","properties":{"SYN_ID":"SYN-0070","PLOT_NO":"70/1","VILLAGE":"Synthetic Test Village (sample)","VILL_CODE":"SYN000","TEHSIL":"Dadri","AREA_HA":0.1267,"CLASS":"Abadi (sample)","UPDATED":"2026-10-01"},"geometry":{"type":"Polygon","coordinates":[[[77.5243105,28.4623485],[77.5247396,28.46227],[77.5246348,28.4626222],[77.5242443,28.4626051],[77.5243105,28.4623485]]]}},{"type":"Feature","properties":{"SYN_ID":"SYN-0071","PLOT_NO":"71","VILLAGE":"Synthetic Test Village (sample)","VILL_CODE":"SYN000","TEHSIL":"Dadri","AREA_HA":0.1266,"CLASS":"Banjar (sample)","UPDATED":"2026-10-01"},"geometry":{"type":"Polygon","coordinates":[[[77.5247396,28.46227],[77.5251092,28.4623243],[77.5251525,28.4626816],[77.5246348,28.4626222],[77.5247396,28.46227]]]}},{"type":"Feature","properties":{"SYN_ID":"SYN-0072","PLOT_NO":"72","VILLAGE":"Synthetic Test Village (sample)","VILL_CODE":"SYN000","TEHSIL":"Dadri","AREA_HA":0.1732,"CLASS":"Agricultural (sample)","UPDATED":"2026-10-01"},"geometry":{"type":"Polygon","coordinates":[[[77.5251092,28.4623243],[77.52554,28.4622462],[77.52554,28.4627092],[77.5251525,28.4626816],[77.5251092,28.4623243]]]}},{"type":"Feature","properties":{"SYN_ID":"SYN-0073","PLOT_NO":"73","VILLAGE":"Synthetic Test Village (sample)","VILL_CODE":"SYN000","TEHSIL":"Dadri","AREA_HA":0.1501,"CLASS":"Abadi (sample)","UPDATED":"2026-10-01"},"geometry":{"type":"Polygon","coordinates":[[[77.5205,28.4626839],[77.5209714,28.4627028],[77.5209128,28.4629924],[77.5205,28.4630227],[77.5205,28.4626839]]]}},{"type":"Feature","properties":{"SYN_ID":"SYN-0074","PLOT_NO":"74","VILLAGE":"Synthetic Test Village (sample)","VILL_CODE":"SYN000","TEHSIL":"Dadri","AREA_HA":0.1547,"CLASS":"Banjar (sample)","UPDATED":"2026-10-01"},"geometry":{"type":"Polygon","coordinates":[[[77.5209714,28.4627028],[77.5213064,28.4626621],[77.5212669,28.4630297],[77.5209128,28.4629924],[77.5209714,28.4627028]]]}},{"type":"Feature","properties":{"SYN_ID":"SYN-0075","PLOT_NO":"75","VILLAGE":"Synthetic Test Village (sample)","VILL_CODE":"SYN000","TEHSIL":"Dadri","AREA_HA":0.1396,"CLASS":"Agricultural (sample)","UPDATED":"2026-10-01"},"geometry":{"type":"Polygon","coordinates":[[[77.5213064,28.4626621],[77.5216891,28.4626586],[77.5216903,28.4629764],[77.5212669,28.4630297],[77.5213064,28.4626621]]]}},{"type":"Feature","properties":{"SYN_ID":"SYN-0076","PLOT_NO":"76","VILLAGE":"Synthetic Test Village (sample)","VILL_CODE":"SYN000","TEHSIL":"Dadri","AREA_HA":0.1822,"CLASS":"Abadi (sample)","UPDATED":"2026-10-01"},"geometry":{"type":"Polygon","coordinates":[[[77.5216891,28.4626586],[77.5222388,28.46272],[77.5221417,28.4630596],[77.5216903,28.4629764],[77.5216891,28.4626586]]]}},{"type":"Feature","properties":{"SYN_ID":"SYN-0077","PLOT_NO":"77/1","VILLAGE":"Synthetic Test Village (sample)","VILL_CODE":"SYN000","TEHSIL":"Dadri","AREA_HA":0.1375,"CLASS":"Banjar (sample)","UPDATED":"2026-10-01"},"geometry":{"type":"Polygon","coordinates":[[[77.5222388,28.46272],[77.5225876,28.4625998],[77.5226378,28.4630115],[77.5221417,28.4630596],[77.5222388,28.46272]]]}},{"type":"Feature","properties":{"SYN_ID":"SYN-0078","PLOT_NO":"78","VILLAGE":"Synthetic Test Village (sample)","VILL_CODE":"SYN000","TEHSIL":"Dadri","AREA_HA":0.1462,"CLASS":"Agricultural (sample)","UPDATED":"2026-10-01"},"geometry":{"type":"Polygon","coordinates":[[[77.5225876,28.4625998],[77.522989,28.4627215],[77.5230676,28.4630321],[77.5226378,28.4630115],[77.5225876,28.4625998]]]}},{"type":"Feature","properties":{"SYN_ID":"SYN-0079","PLOT_NO":"79","VILLAGE":"Synthetic Test Village (sample)","VILL_CODE":"SYN000","TEHSIL":"Dadri","AREA_HA":0.1775,"CLASS":"Abadi (sample)","UPDATED":"2026-10-01"},"geometry":{"type":"Polygon","coordinates":[[[77.522989,28.4627215],[77.523416,28.4626131],[77.5234337,28.4629655],[77.5230676,28.4630321],[77.522989,28.4627215]]]}},{"type":"Feature","properties":{"SYN_ID":"SYN-0080","PLOT_NO":"80","VILLAGE":"Synthetic Test Village (sample)","VILL_CODE":"SYN000","TEHSIL":"Dadri","AREA_HA":0.1625,"CLASS":"Banjar (sample)","UPDATED":"2026-10-01"},"geometry":{"type":"Polygon","coordinates":[[[77.523416,28.4626131],[77.5238761,28.4626753],[77.5238635,28.463015],[77.5234337,28.4629655],[77.523416,28.4626131]]]}},{"type":"Feature","properties":{"SYN_ID":"SYN-0081","PLOT_NO":"81","VILLAGE":"Synthetic Test Village (sample)","VILL_CODE":"SYN000","TEHSIL":"Dadri","AREA_HA":0.1439,"CLASS":"Agricultural (sample)","UPDATED":"2026-10-01"},"geometry":{"type":"Polygon","coordinates":[[[77.5238761,28.4626753],[77.5242443,28.4626051],[77.5242868,28.4630537],[77.5238635,28.463015],[77.5238761,28.4626753]]]}},{"type":"Feature","properties":{"SYN_ID":"SYN-0082","PLOT_NO":"82","VILLAGE":"Synthetic Test Village (sample)","VILL_CODE":"SYN000","TEHSIL":"Dadri","AREA_HA":0.1664,"CLASS":"Abadi (sample)","UPDATED":"2026-10-01"},"geometry":{"type":"Polygon","coordinates":[[[77.5242443,28.4626051],[77.5246348,28.4626222],[77.5246768,28.4629626],[77.5242868,28.4630537],[77.5242443,28.4626051]]]}},{"type":"Feature","properties":{"SYN_ID":"SYN-0083","PLOT_NO":"83","VILLAGE":"Synthetic Test Village (sample)","VILL_CODE":"SYN000","TEHSIL":"Dadri","AREA_HA":0.1656,"CLASS":"Banjar (sample)","UPDATED":"2026-10-01"},"geometry":{"type":"Polygon","coordinates":[[[77.5246348,28.4626222],[77.5251525,28.4626816],[77.5251068,28.4629963],[77.5246768,28.4629626],[77.5246348,28.4626222]]]}},{"type":"Feature","properties":{"SYN_ID":"SYN-0084","PLOT_NO":"84/1","VILLAGE":"Synthetic Test Village (sample)","VILL_CODE":"SYN000","TEHSIL":"Dadri","AREA_HA":0.1307,"CLASS":"Agricultural (sample)","UPDATED":"2026-10-01"},"geometry":{"type":"Polygon","coordinates":[[[77.5251525,28.4626816],[77.52554,28.4627092],[77.52554,28.4630272],[77.5251068,28.4629963],[77.5251525,28.4626816]]]}},{"type":"Feature","properties":{"SYN_ID":"SYN-0085","PLOT_NO":"85","VILLAGE":"Synthetic Test Village (sample)","VILL_CODE":"SYN000","TEHSIL":"Dadri","AREA_HA":0.1847,"CLASS":"Abadi (sample)","UPDATED":"2026-10-01"},"geometry":{"type":"Polygon","coordinates":[[[77.5205,28.4630227],[77.5209128,28.4629924],[77.5209702,28.46338],[77.5205,28.46338],[77.5205,28.4630227]]]}},{"type":"Feature","properties":{"SYN_ID":"SYN-0086","PLOT_NO":"86","VILLAGE":"Synthetic Test Village (sample)","VILL_CODE":"SYN000","TEHSIL":"Dadri","AREA_HA":0.1932,"CLASS":"Banjar (sample)","UPDATED":"2026-10-01"},"geometry":{"type":"Polygon","coordinates":[[[77.5209128,28.4629924],[77.5212669,28.4630297],[77.5213481,28.46338],[77.5209702,28.46338],[77.5209128,28.4629924]]]}},{"type":"Feature","properties":{"SYN_ID":"SYN-0087","PLOT_NO":"87","VILLAGE":"Synthetic Test Village (sample)","VILL_CODE":"SYN000","TEHSIL":"Dadri","AREA_HA":0.2022,"CLASS":"Agricultural (sample)","UPDATED":"2026-10-01"},"geometry":{"type":"Polygon","coordinates":[[[77.5212669,28.4630297],[77.5216903,28.4629764],[77.5218243,28.46338],[77.5213481,28.46338],[77.5212669,28.4630297]]]}},{"type":"Feature","properties":{"SYN_ID":"SYN-0088","PLOT_NO":"88","VILLAGE":"Synthetic Test Village (sample)","VILL_CODE":"SYN000","TEHSIL":"Dadri","AREA_HA":0.125,"CLASS":"Abadi (sample)","UPDATED":"2026-10-01"},"geometry":{"type":"Polygon","coordinates":[[[77.5216903,28.4629764],[77.5221417,28.4630596],[77.5221391,28.46338],[77.5218243,28.46338],[77.5216903,28.4629764]]]}},{"type":"Feature","properties":{"SYN_ID":"SYN-0089","PLOT_NO":"89","VILLAGE":"Synthetic Test Village (sample)","VILL_CODE":"SYN000","TEHSIL":"Dadri","AREA_HA":0.2061,"CLASS":"Banjar (sample)","UPDATED":"2026-10-01"},"geometry":{"type":"Polygon","coordinates":[[[77.5221417,28.4630596],[77.5226378,28.4630115],[77.5226485,28.46338],[77.5221391,28.46338],[77.5221417,28.4630596]]]}},{"type":"Feature","properties":{"SYN_ID":"SYN-0090","PLOT_NO":"90","VILLAGE":"Synthetic Test Village (sample)","VILL_CODE":"SYN000","TEHSIL":"Dadri","AREA_HA":0.2065,"CLASS":"Agricultural (sample)","UPDATED":"2026-10-01"},"geometry":{"type":"Polygon","coordinates":[[[77.5226378,28.4630115],[77.5230676,28.4630321],[77.522961,28.46338],[77.5226485,28.46338],[77.5226378,28.4630115]]]}},{"type":"Feature","properties":{"SYN_ID":"SYN-0091","PLOT_NO":"91/1","VILLAGE":"Synthetic Test Village (sample)","VILL_CODE":"SYN000","TEHSIL":"Dadri","AREA_HA":0.1934,"CLASS":"Abadi (sample)","UPDATED":"2026-10-01"},"geometry":{"type":"Polygon","coordinates":[[[77.5230676,28.4630321],[77.5234337,28.4629655],[77.5234994,28.46338],[77.522961,28.46338],[77.5230676,28.4630321]]]}},{"type":"Feature","properties":{"SYN_ID":"SYN-0092","PLOT_NO":"92","VILLAGE":"Synthetic Test Village (sample)","VILL_CODE":"SYN000","TEHSIL":"Dadri","AREA_HA":0.1859,"CLASS":"Banjar (sample)","UPDATED":"2026-10-01"},"geometry":{"type":"Polygon","coordinates":[[[77.5234337,28.4629655],[77.5238635,28.463015],[77.5238624,28.46338],[77.5234994,28.46338],[77.5234337,28.4629655]]]}},{"type":"Feature","properties":{"SYN_ID":"SYN-0093","PLOT_NO":"93","VILLAGE":"Synthetic Test Village (sample)","VILL_CODE":"SYN000","TEHSIL":"Dadri","AREA_HA":0.1594,"CLASS":"Agricultural (sample)","UPDATED":"2026-10-01"},"geometry":{"type":"Polygon","coordinates":[[[77.5238635,28.463015],[77.5242868,28.4630537],[77.5243008,28.46338],[77.5238624,28.46338],[77.5238635,28.463015]]]}},{"type":"Feature","properties":{"SYN_ID":"SYN-0094","PLOT_NO":"94","VILLAGE":"Synthetic Test Village (sample)","VILL_CODE":"SYN000","TEHSIL":"Dadri","AREA_HA":0.1299,"CLASS":"Abadi (sample)","UPDATED":"2026-10-01"},"geometry":{"type":"Polygon","coordinates":[[[77.5242868,28.4630537],[77.5246768,28.4629626],[77.5247468,28.46338],[77.5243008,28.46338],[77.5242868,28.4630537]]]}},{"type":"Feature","properties":{"SYN_ID":"SYN-0095","PLOT_NO":"95","VILLAGE":"Synthetic Test Village (sample)","VILL_CODE":"SYN000","TEHSIL":"Dadri","AREA_HA":0.2105,"CLASS":"Banjar (sample)","UPDATED":"2026-10-01"},"geometry":{"type":"Polygon","coordinates":[[[77.5246768,28.4629626],[77.5251068,28.4629963],[77.5251354,28.46338],[77.5247468,28.46338],[77.5246768,28.4629626]]]}},{"type":"Feature","properties":{"SYN_ID":"SYN-0096","PLOT_NO":"96","VILLAGE":"Synthetic Test Village (sample)","VILL_CODE":"SYN000","TEHSIL":"Dadri","AREA_HA":0.1825,"CLASS":"Agricultural (sample)","UPDATED":"2026-10-01"},"geometry":{"type":"Polygon","coordinates":[[[77.5251068,28.4629963],[77.52554,28.4630272],[77.52554,28.46338],[77.5251354,28.46338],[77.5251068,28.4629963]]]}}]}
